[{"OBJECT_NAME":"CENTISPACE-1 S4","OBJECT_ID":"2022-108B","EPOCH":"2026-03-09T22:00:22.968864","MEAN_MOTION":14.61780316,"ECCENTRICITY":0.00102205,"INCLINATION":53.5295,"RA_OF_ASC_NODE":103.6933,"ARG_OF_PERICENTER":71.3368,"MEAN_ANOMALY":288.8716,"EPHEMERIS_TYPE":0,"CLASSIFICATION_TYPE":"U","NORAD_CAT_ID":53758,"ELEMENT_SET_NO":999,"REV_AT_EPOCH":18704,"BSTAR":0.00019160813,"MEAN_MOTION_DOT":7.73e-6,"MEAN_MOTION_DDOT":0},{"OBJECT_NAME":"CINEMA-3 (KHUSAT-2)","OBJECT_ID":"2013-066L","EPOCH":"2026-03-09T18:28:25.836672","MEAN_MOTION":14.77999867,"ECCENTRICITY":0.00904452,"INCLINATION":97.8431,"RA_OF_ASC_NODE":343.5667,"ARG_OF_PERICENTER":173.534,"MEAN_ANOMALY":186.7062,"EPHEMERIS_TYPE":0,"CLASSIFICATION_TYPE":"U","NORAD_CAT_ID":39426,"ELEMENT_SET_NO":999,"REV_AT_EPOCH":65976,"BSTAR":0.00024260325,"MEAN_MOTION_DOT":1.819e-5,"MEAN_MOTION_DDOT":0}]
