CINEMA-3 (KHUSAT-2)     
1 39426U 13066L   26068.76974348  .00001819  00000+0  24260-3 0  9995
2 39426  97.8431 343.5667 0090445 173.5340 186.7062 14.77999867659767
CENTISPACE-1 S4         
1 53758U 22108B   26068.91693251  .00000773  00000+0  19161-3 0  9996
2 53758  53.5295 103.6933 0010220  71.3368 288.8716 14.61780316187044
